ICEYE-X2                
1 43800U 18099AU  26145.59132458  .00008044  00000+0  40507-3 0  9991
2 43800  97.4374 199.8356 0010921  31.4752 328.7133 15.17401707409392
ICEYE-X5                
1 44389U 19038C   26145.61103472  .00040635  00000+0  64543-3 0  9993
2 44389  97.8715 198.0852 0003910 341.2508  18.8599 15.53231498379455
ICEYE-X4                
1 44390U 19038D   26145.62013520  .00012136  00000+0  43637-3 0  9996
2 44390  97.8781 177.2133 0013861  31.4601 328.7464 15.28702290378356
ICEYE-X7                
1 46496U 20068L   26145.59658461  .00011525  00000+0  38766-3 0  9993
2 46496  97.7483 111.1091 0009433  56.6540 303.5602 15.30934297311331
ICEYE-X6                
1 46497U 20068M   26145.57779837  .00002557  00000+0  18798-3 0  9991
2 46497  98.0979 138.1726 0007860 153.1278 207.0356 15.04383208309830
ICEYE-X11               
1 48918U 21059AR  26145.61368053  .00169410  12701-4  55770-3 0  9990
2 48918  97.6369 342.0666 0002689  69.1927 290.9633 15.90499627274397
ICEYE-X21               
1 55049U 23001AS  26145.61184545  .00205764  18599-4  50915-3 0  9994
2 55049  97.3243 230.0136 0004458 183.8547 176.2696 15.95942274190000
ICEYE-X26               
1 56961U 23084AF  26145.40055458  .01001221  54742-3  14218-2 0  9993
2 56961  97.5640 308.8898 0010390 278.0813  81.9289 16.05636318165633
ICEYE-X25               
1 56963U 23084AH  26145.66289229  .00041521  00000+0  54786-3 0  9993
2 56963  97.5857 290.3934 0002580  39.3591 320.7852 15.58285954164467
ICEYE-X31               
1 58288U 23174AJ  26145.63046037  .00016863  00000+0  52366-3 0  9993
2 58288  97.3789 221.3914 0003212  73.7994 286.3602 15.33433259141297
ICEYE-X34               
1 58294U 23174AQ  26145.51406638  .00070067  00000+0  82042-3 0  9994
2 58294  97.3877 235.6796 0005479 212.7879 147.3039 15.61306362142209
ICEYE-X35               
1 58302U 23174AY  26145.60067953  .00039640  00000+0  70107-3 0  9998
2 58302  97.3801 229.5860 0007889 264.0034  96.0318 15.50187427141846
ICEYE-X38               
1 59100U 24043C   26145.56150544  .00004441  00000+0  25824-3 0  9992
2 59100  97.8371 288.6942 0003536 140.9017 219.2469 15.12610371108256
ICEYE-X37               
1 59102U 24043E   26145.32473668  .00004138  00000+0  28840-3 0  9997
2 59102  97.8281 281.9739 0016542  88.4259 271.8862 15.05886710121646
ICEYE-X36               
1 59103U 24043F   26145.47261994  .00003736  00000+0  25609-3 0  9994
2 59103  97.8334 283.1509 0006612  48.0677 312.1112 15.06662103121723
ICEYE-X43               
1 60539U 24149BZ  26145.14335922  .00002849  00000+0  23502-3 0  9997
2 60539  97.6759 222.4269 0005991 156.0794 204.0709 14.99799841 96661
ICEYE-X39               
1 60546U 24149CG  26145.46015888  .00002408  00000+0  19977-3 0  9998
2 60546  97.6786 222.7949 0003195 167.8371 192.2930 14.99732077 96710
ICEYE-X33               
1 60548U 24149CJ  26145.16860355  .00003545  00000+0  28314-3 0  9992
2 60548  97.7197 224.4460 0000430 130.0039 230.1223 15.00902357 96752
ICEYE-X40               
1 60549U 24149CK  26145.45638021  .00001062  00000+0  95202-4 0  9991
2 60549  97.6815 222.3194 0005299 140.1079 220.0534 14.97861580 96675
ICEYE-X49               
1 62384U 24247H   26145.38832902  .00002837  00000+0  17327-3 0  9997
2 62384  44.9972 119.0812 0001281 286.4761  73.5975 15.12778750 78721
ICEYE-X47               
1 62389U 24247N   26145.63267017  .00002209  00000+0  13712-3 0  9996
2 62389  44.9968 117.4343 0000058 357.6573   2.4304 15.13040953 78764
ICEYE-X42               
1 62698U 25009CT  26145.46937104  .00001751  00000+0  17883-3 0  9992
2 62698  97.7398 224.1922 0001769  99.8813 260.2605 14.91869081 73906
ICEYE-X41               
1 62700U 25009CV  26145.20531164  .00002656  00000+0  23835-3 0  9993
2 62700  97.7065 225.0689 0002811 100.3700 259.7838 14.96576204 73978
ICEYE-X45               
1 62705U 25009DA  26145.19481622  .00008764  00000+0  69330-3 0  9995
2 62705  97.8252 231.7120 0001093  92.6146 267.5203 15.00866269 74236
ICEYE-X44               
1 62707U 25009DC  26145.14248044  .00002640  00000+0  24141-3 0  9999
2 62707  97.7052 224.6356 0001647 153.7558 206.3746 14.95852249 96499
ICEYE-X48               
1 63253U 25052AV  26145.27686854  .00001868  00000+0  16391-3 0  9992
2 63253  97.6904  37.8152 0001116 331.2168  28.8992 14.97821680 65246
ICEYE-X50               
1 63255U 25052AX  26145.67257145  .00001119  00000+0  10699-3 0  9999
2 63255  97.6919  37.9994 0000711 346.7062  13.4140 14.95194010 65280
ICEYE-X51               
1 63257U 25052AZ  26145.65701366  .00004075  00000+0  32457-3 0  9998
2 63257  97.7511  40.8063 0002030  58.2523 301.8898 15.00928515 65426
ICEYE-X46               
1 63258U 25052BA  26145.26803608  .00001446  00000+0  13674-3 0  9997
2 63258  97.6920  37.6000 0001724  86.6522 273.4896 14.95203427 65229
ICEYE-X54               
1 64570U 25135AU  26145.59454513  .00003079  00000+0  29129-3 0  9996
2 64570  97.7693 260.2439 0003061  59.0753 301.0768 14.94392206 50527
ICEYE-X52               
1 64572U 25135AW  26145.55868573  .00001391  00000+0  13765-3 0  9993
2 64572  97.7720 260.0610 0003115  67.1229 293.0319 14.93463308 50508
ICEYE-X56               
1 64574U 25135AY  26145.61778943  .00002644  00000+0  24418-3 0  9992
2 64574  97.7721 260.7588 0003290  70.1025 290.0550 14.95459319 50552
ICEYE-X57               
1 64578U 25135BC  26145.59892657  .00004340  00000+0  34597-3 0  9996
2 64578  97.7872 262.0052 0001768  51.9291 308.2092 15.00860658 50635
ICEYE-X55               
1 64581U 25135BF  26145.61168517  .00003155  00000+0  29337-3 0  9993
2 64581  97.7719 260.6105 0004622  76.2074 283.9661 14.95052968 50544
ICEYE-X53               
1 64584U 25135BJ  26145.62375765  .00003270  00000+0  26152-3 0  9992
2 64584  97.7396 262.5026 0001709 136.9597 223.1761 15.00913180 50690
ICEYE-X65               
1 66300U 25248H   26145.35758158  .00004075  00000+0  27083-3 0  9994
2 66300  45.4043 254.2173 0006513 266.4769  93.5368 15.08768821 32078
ICEYE-X66               
1 66301U 25248J   26145.32841182  .00003739  00000+0  24921-3 0  9996
2 66301  45.4014 253.9496 0006163 261.1984  98.8200 15.08860800 32054
ICEYE-X67               
1 66302U 25248K   26145.02136442  .00003729  00000+0  24875-3 0  9997
2 66302  45.4050 255.1199 0007616 262.8934  97.1082 15.08838177 32025
ICEYE-X58               
1 66751U 25276CP  26145.44261928  .00001076  00000+0  56645-4 0  9994
2 66751  97.4213 219.3357 0004686  69.8156 290.3581 15.17725271 26961
ICEYE-X59               
1 66752U 25276CQ  26145.15040112  .00001748  00000+0  14492-3 0  9992
2 66752  97.4191 217.4514 0002718  90.1056 270.0480 15.00031966 26811
ICEYE-X60               
1 66753U 25276CR  26145.13992516  .00003497  00000+0  21762-3 0  9996
2 66753  97.4177 218.5091 0005096 110.8154 249.3622 15.10231534 26887
ICEYE-X61               
1 66754U 25276CS  26145.15997034  .00003034  00000+0  15146-3 0  9995
2 66754  97.4207 219.0840 0004690  72.9846 287.1902 15.18237141 26929
ICEYE-X62               
1 66755U 25276CT  26145.59847444  .00001885  00000+0  12010-3 0  9992
2 66755  97.4208 218.5155 0003948  87.1324 273.0357 15.09918722 26927
ICEYE-X63               
1 67372U 26004K   26144.95357256  .00000757  00000+0  87846-4 0  9991
2 67372  97.7999 143.9585 0003736 184.6622 175.4561 14.88250334 19849
ICEYE-X64               
1 67373U 26004L   26145.46005957  .00001105  00000+0  12675-3 0  9992
2 67373  97.8015 144.3973 0005251 196.0489 164.0563 14.87856365 19917
ICEYE-X71               
1 68494U 26067CG  26145.38751798  .00002048  00000+0  20995-3 0  9999
2 68494  97.7600 103.9790 0003800  93.7118 266.4536 14.91537460  8326
ICEYE-X73               
1 68496U 26067CJ  26145.63527650  .00002813  00000+0  28237-3 0  9994
2 68496  97.7593 104.2678 0003030  55.8394 304.3111 14.92091237  8361
ICEYE-X75               
1 68497U 26067CK  26145.36783266  .00002252  00000+0  22733-3 0  9994
2 68497  97.7577 103.9906 0002764  60.2682 299.8812 14.92065398  8328
ICEYE-X74               
1 68500U 26067CN  26145.31960675  .00002116  00000+0  21667-3 0  9999
2 68500  97.7607 103.9184 0003817  91.1101 269.0555 14.91540476  8310
ICEYE-X76               
1 68502U 26067CQ  26145.38339518  .00000851  00000+0  90213-4 0  9992
2 68502  97.7613 103.9926 0003643  88.2498 271.9137 14.91639320  8322
ICEYE-X72               
1 68504U 26067CS  26145.37328495  .00002305  00000+0  23317-3 0  9991
2 68504  97.7615 104.0061 0003473  66.9239 293.2346 14.91961541  8327
ICEYE-X78               
1 68995U 26100R   26145.26877711  .00002730  00000+0  27722-3 0  9997
2 68995  97.7392  43.1491 0002143 159.9932 200.1371 14.91641916  3285
